NORAD_CAT_ID,OBJECT_NAME,OBJECT_TYPE,EPOCH,MEAN_MOTION,ECCENTRICITY,INCLINATION,RA_OF_ASC_NODE,ARG_OF_PERICENTER,MEAN_ANOMALY,BSTAR,MEAN_MOTION_DOT,MEAN_MOTION_DDOT,TLE_LINE0,TLE_LINE1,TLE_LINE2,SEMIMAJOR_AXIS,PERIOD,APOGEE,PERIGEE,DECAYED
52349.0,STARLINK-3819,PAYLOAD,2024-07-14 12:41:39,15.0883155,0.0001135,53.2184,26.8173,66.7781,293.3331,7.7413e-05,9.44e-06,0.0,0 STARLINK-3819,1 52349U 22045U   24196.52892634  .00000944  00000-0  77413-4 0  9990,2 52349  53.2184  26.8173 0001135  66.7781 293.3331 15.08831550124726,6917.906,95.438,540.556,538.986,0.0
52349.0,STARLINK-3819,PAYLOAD,2024-07-14 19:03:11,15.08835148,9.16e-05,53.2166,25.6264,58.336,301.7721,0.00012709,1.735e-05,0.0,0 STARLINK-3819,1 52349U 22045U   24196.79388338  .00001735  00000-0  12709-3 0  9995,2 52349  53.2166  25.6264 0000916  58.3360 301.7721 15.08835148124768,6917.895,95.438,540.394,539.127,0.0
52349.0,STARLINK-3819,PAYLOAD,2024-07-15 06:10:52,15.08859798,0.0001376,53.2174,23.5448,65.7288,294.3847,0.00034161,5.156e-05,0.0,0 STARLINK-3819,1 52349U 22045U   24197.25755114  .00005156  00000-0  34161-3 0  9994,2 52349  53.2174  23.5448 0001376  65.7288 294.3847 15.08859798124831,6917.82,95.436,540.637,538.733,0.0
52349.0,STARLINK-3819,PAYLOAD,2024-07-15 18:53:58,15.08841006,0.0001299,53.2183,21.164,83.2695,276.8445,0.00024598,3.629e-05,0.0,0 STARLINK-3819,1 52349U 22045U   24197.78748150  .00003629  00000-0  24598-3 0  9990,2 52349  53.2183  21.1640 0001299  83.2695 276.8445 15.08841006124911,6917.877,95.437,540.641,538.844,0.0
52349.0,STARLINK-3819,PAYLOAD,2024-07-15 22:04:44,15.08844768,0.0001483,53.2191,20.5682,90.716,269.4002,0.00023263,3.417e-05,0.0,0 STARLINK-3819,1 52349U 22045U   24197.91995953  .00003417  00000-0  23263-3 0  9993,2 52349  53.2191  20.5682 0001483  90.7160 269.4002 15.08844768124931,6917.866,95.437,540.757,538.705,0.0
52349.0,STARLINK-3819,PAYLOAD,2024-07-16 18:44:45,15.08847456,0.000142,53.2184,16.7015,82.2317,277.8836,3.4966e-05,2.69e-06,0.0,0 STARLINK-3819,1 52349U 22045U   24198.78107719  .00000269  00000-0  34966-4 0  9999,2 52349  53.2184  16.7015 0001420  82.2317 277.8836 15.08847456125061,6917.858,95.437,540.705,538.74,0.0
52349.0,STARLINK-3819,PAYLOAD,2024-07-17 12:13:59,15.08841959,0.0001362,53.2179,13.4298,86.0042,274.1106,4.7388e-05,4.66e-06,0.0,0 STARLINK-3819,1 52349U 22045U   24199.50971772  .00000466  00000-0  47388-4 0  9999,2 52349  53.2179  13.4298 0001362  86.0042 274.1106 15.08841959125178,6917.874,95.437,540.682,538.797,0.0
52349.0,STARLINK-3819,PAYLOAD,2024-07-17 18:35:32,15.08831928,0.0001231,53.2177,12.2401,107.0115,253.1012,-8.4622e-05,-1.634e-05,0.0,0 STARLINK-3819,1 52349U 22045U   24199.77468197 -.00001634  00000-0 -84622-4 0  9992,2 52349  53.2177  12.2401 0001231 107.0115 253.1012 15.08831928125212,6917.905,95.438,540.622,538.918,0.0
52349.0,STARLINK-3819,PAYLOAD,2024-07-18 04:07:50,15.08849825,8.32e-05,53.2182,10.4599,93.5927,266.516,8.5825e-05,1.079e-05,0.0,0 STARLINK-3819,1 52349U 22045U   24200.17211432  .00001079  00000-0  85825-4 0  9994,2 52349  53.2182  10.4599 0000832  93.5927 266.5160 15.08849825125275,6917.85,95.437,540.291,539.14,0.0
52349.0,STARLINK-3819,PAYLOAD,2024-07-18 18:26:19,15.08834669,0.0001515,53.2194,7.7882,121.1516,238.9625,4.3961e-05,4.12e-06,0.0,0 STARLINK-3819,1 52349U 22045U   24200.76828625  .00000412  00000-0  43961-4 0  9992,2 52349  53.2194   7.7882 0001515 121.1516 238.9625 15.08834669125362,6917.897,95.438,540.81,538.714,0.0
52349.0,STARLINK-3819,PAYLOAD,2024-07-19 16:41:43,15.08835442,0.0001376,53.2197,3.6241,119.9743,240.1386,0.00018165,2.604e-05,0.0,0 STARLINK-3819,1 52349U 22045U   24201.69564468  .00002604  00000-0  18165-3 0  9999,2 52349  53.2197   3.6241 0001376 119.9743 240.1386 15.08835442125506,6917.894,95.438,540.711,538.807,0.0
52349.0,STARLINK-3819,PAYLOAD,2024-07-20 03:49:25,15.08848935,9.22e-05,53.2169,1.5386,76.1382,283.9713,0.00016541,2.346e-05,0.0,0 STARLINK-3819,1 52349U 22045U   24202.15931801  .00002346  00000-0  16541-3 0  9999,2 52349  53.2169   1.5386 0000922  76.1382 283.9713 15.08848935125578,6917.853,95.437,540.356,539.08,0.0
52349.0,STARLINK-3819,PAYLOAD,2024-07-20 11:46:21,15.08830724,0.0001427,53.2183,0.0537,101.6167,258.4985,2.3264e-05,8.2e-07,0.0,0 STARLINK-3819,1 52349U 22045U   24202.49052716  .00000082  00000-0  23264-4 0  9991,2 52349  53.2183   0.0537 0001427 101.6167 258.4985 15.08830724125623,6917.909,95.438,540.761,538.787,0.0
52349.0,STARLINK-3819,PAYLOAD,2024-07-20 14:57:07,15.08838968,0.0001165,53.2171,359.4567,92.8998,267.2127,0.00016364,2.317e-05,0.0,0 STARLINK-3819,1 52349U 22045U   24202.62300547  .00002317  00000-0  16364-3 0  9999,2 52349  53.2171 359.4567 0001165  92.8998 267.2127 15.08838968125642,6917.884,95.438,540.554,538.943,0.0
52349.0,STARLINK-3819,PAYLOAD,2024-07-20 18:07:53,15.08845586,0.0001002,53.2173,358.8628,77.2954,282.8151,0.00015963,2.254e-05,0.0,0 STARLINK-3819,1 52349U 22045U   24202.75548269  .00002254  00000-0  15963-3 0  9992,2 52349  53.2173 358.8628 0001002  77.2954 282.8151 15.08845586125660,6917.863,95.437,540.421,539.035,0.0
52349.0,STARLINK-3819,PAYLOAD,2024-07-21 10:01:45,15.08826717,0.0001199,53.2174,355.8887,83.1787,276.9341,-0.00020021,-3.472e-05,0.0,0 STARLINK-3819,1 52349U 22045U   24203.41789171 -.00003472  00000-0 -20021-3 0  9991,2 52349  53.2174 355.8887 0001199  83.1787 276.9341 15.08826717125763,6917.921,95.438,540.615,538.957,0.0
52349.0,STARLINK-3819,PAYLOAD,2024-07-21 16:23:18,15.08831202,0.00013,53.2176,354.7023,75.4936,284.62,-9.9644e-05,-1.873e-05,0.0,0 STARLINK-3819,1 52349U 22045U   24203.68285199 -.00001873  00000-0 -99644-4 0  9992,2 52349  53.2176 354.7023 0001300  75.4936 284.6200 15.08831202125809,6917.907,95.438,540.672,538.873,0.0
52349.0,STARLINK-3819,PAYLOAD,2024-07-23 09:43:20,15.08828745,0.0001117,53.2165,346.9657,99.0838,261.028,0.00078436,0.00012213,0.0,0 STARLINK-3819,1 52349U 22045U   24205.40509984  .00012213  00000-0  78436-3 0  9998,2 52349  53.2165 346.9657 0001117  99.0838 261.0280 15.08828745126066,6917.915,95.438,540.553,539.007,0.0
52349.0,STARLINK-3819,PAYLOAD,2024-07-23 19:15:39,15.08830767,0.0001127,53.2183,345.1805,108.2869,251.8246,-3.6138e-05,-8.63e-06,0.0,0 STARLINK-3819,1 52349U 22045U   24205.80253588 -.00000863  00000-0 -36138-4 0  9992,2 52349  53.2183 345.1805 0001127 108.2869 251.8246 15.08830767126123,6917.909,95.438,540.553,538.994,0.0
52349.0,STARLINK-3819,PAYLOAD,2024-07-24 09:34:07,15.0883697,0.0001004,53.2179,342.5065,94.2167,265.894,2.5493e-05,1.18e-06,0.0,0 STARLINK-3819,1 52349U 22045U   24206.39869513  .00000118  00000-0  25493-4 0  9991,2 52349  53.2179 342.5065 0001004  94.2167 265.8940 15.08836970126214,6917.89,95.438,540.449,539.06,0.0
52349.0,STARLINK-3819,PAYLOAD,2024-07-25 09:24:54,15.08838499,0.0001136,53.2189,338.0464,105.6948,254.4169,0.00021529,3.14e-05,0.0,0 STARLINK-3819,1 52349U 22045U   24207.39229279  .00003140  00000-0  21529-3 0  9994,2 52349  53.2189 338.0464 0001136 105.6948 254.4169 15.08838499126369,6917.885,95.438,540.536,538.964,0.0
52349.0,STARLINK-3819,PAYLOAD,2024-07-26 01:18:45,15.08839821,9.23e-05,53.2141,335.0746,100.0691,260.0406,0.00015419,2.167e-05,0.0,0 STARLINK-3819,1 52349U 22045U   24208.05469342  .00002167  00000-0  15419-3 0  9994,2 52349  53.2141 335.0746 0000923 100.0691 260.0406 15.08839821126462,6917.881,95.438,540.384,539.107,0.0
52349.0,STARLINK-3819,PAYLOAD,2024-07-26 09:15:41,15.08843388,0.0001567,53.225,333.5906,112.1157,248.0001,9.0275e-05,1.149e-05,0.0,0 STARLINK-3819,1 52349U 22045U   24208.38589548  .00001149  00000-0  90275-4 0  9994,2 52349  53.2250 333.5906 0001567 112.1157 248.0001 15.08843388126516,6917.87,95.437,540.819,538.651,0.0
52349.0,STARLINK-3819,PAYLOAD,2024-07-26 17:12:36,15.0885505,0.0001059,53.2169,332.0999,90.8922,269.2192,8.8714e-05,1.125e-05,0.0,0 STARLINK-3819,1 52349U 22045U   24208.71708478  .00001125  00000-0  88714-4 0  9995,2 52349  53.2169 332.0999 0001059  90.8922 269.2192 15.08855050126569,6917.834,95.437,540.432,538.967,0.0
52349.0,STARLINK-3819,PAYLOAD,2024-07-27 17:03:24,15.08833491,0.0001043,53.2181,327.639,72.3009,287.8096,5.2514e-05,5.48e-06,0.0,0 STARLINK-3819,1 52349U 22045U   24209.71070338  .00000548  00000-0  52514-4 0  9990,2 52349  53.2181 327.6390 0001043  72.3009 287.8096 15.08833491126713,6917.9,95.438,540.487,539.044,0.0
52349.0,STARLINK-3819,PAYLOAD,2024-07-28 13:43:24,15.08865689,0.0002015,53.2159,323.7743,81.692,278.4301,-0.00033273,-5.584e-05,0.0,0 STARLINK-3819,1 52349U 22045U   24210.57181016 -.00005584  00000-0 -33273-3 0  9999,2 52349  53.2159 323.7743 0002015  81.6920 278.4301 15.08865689126845,6917.802,95.436,541.061,538.273,0.0
52349.0,STARLINK-3819,PAYLOAD,2024-07-28 20:04:56,15.08857642,0.0001249,53.2176,322.5857,91.4808,268.6327,0.00013665,1.889e-05,0.0,0 STARLINK-3819,1 52349U 22045U   24210.83676553  .00001889  00000-0  13665-3 0  9998,2 52349  53.2176 322.5857 0001249  91.4808 268.6327 15.08857642126882,6917.826,95.436,540.556,538.827,0.0
52349.0,STARLINK-3819,PAYLOAD,2024-07-29 00:51:06,15.0885009,0.0001462,53.2185,321.6926,88.4153,271.7007,0.00022444,3.287e-05,0.0,0 STARLINK-3819,1 52349U 22045U   24211.03548787  .00003287  00000-0  22444-3 0  9997,2 52349  53.2185 321.6926 0001462  88.4153 271.7007 15.08850090126919,6917.85,95.437,540.726,538.703,0.0
52349.0,STARLINK-3819,PAYLOAD,2024-07-29 13:34:11,15.08847769,0.0001786,53.2175,319.3108,95.525,264.5946,0.00017771,2.542e-05,0.0,0 STARLINK-3819,1 52349U 22045U   24211.56541007  .00002542  00000-0  17771-3 0  9993,2 52349  53.2175 319.3108 0001786  95.5250 264.5946 15.08847769126999,6917.857,95.437,540.957,538.486,0.0
52349.0,STARLINK-3819,PAYLOAD,2024-07-29 16:44:58,15.08841437,0.0001358,53.2176,318.7175,99.1028,261.0118,0.00012117,1.641e-05,0.0,0 STARLINK-3819,1 52349U 22045U   24211.69789515  .00001641  00000-0  12117-3 0  9993,2 52349  53.2176 318.7175 0001358  99.1028 261.0118 15.08841437127018,6917.876,95.437,540.68,538.802,0.0
